{
  "type": "FeatureCollection",
  "features": [
    {
      "type": "Feature",
      "properties": {
        "norad_id": 66920,
        "name": "HULIANWANG DIGUI-110",
        "group": "last-30-days",
        "lat": 31.841309177268357,
        "lon": 123.54791138176165,
        "alt_km": 877.0504916679347,
        "timestamp": "2025-12-18T21:31:49.700946+00:00",
        "meta_object_name": "HULIANWANG DIGUI-110",
        "meta_object_id": "2025-285F",
        "meta_epoch": "2025-12-18T07:39:17.487360",
        "meta_mean_motion": 14.03681641,
        "meta_eccentricity": 0.00055725,
        "meta_inclination": 50.0113,
        "meta_ra_of_asc_node": 94.4884,
        "meta_arg_of_pericenter": 308.2158,
        "meta_mean_anomaly": 51.8244,
        "meta_ephemeris_type": 0,
        "meta_classification_type": "U",
        "meta_norad_cat_id": 66920,
        "meta_element_set_no": 999,
        "meta_rev_at_epoch": 169,
        "meta_bstar": 0.00016880328,
        "meta_mean_motion_dot": 1.15e-06,
        "meta_mean_motion_ddot": 0,
        "tle_line1": "1 66920U 25285F   25352.31895240  .00000115  00000+0  16880-3 0  9996",
        "tle_line2": "2 66920  50.0113  94.4884 0005572 308.2158  51.8244 14.03681641  1692"
      },
      "geometry": {
        "type": "Point",
        "coordinates": [
          123.54791138176165,
          31.841309177268357
        ]
      }
    },
    {
      "type": "Feature",
      "properties": {
        "norad_id": 66921,
        "name": "HULIANWANG DIGUI-111",
        "group": "last-30-days",
        "lat": 34.92125713705713,
        "lon": 127.998070567381,
        "alt_km": 876.5799303270533,
        "timestamp": "2025-12-18T21:31:49.700958+00:00",
        "meta_object_name": "HULIANWANG DIGUI-111",
        "meta_object_id": "2025-285G",
        "meta_epoch": "2025-12-17T23:05:16.535616",
        "meta_mean_motion": 14.0363017,
        "meta_eccentricity": 0.00067288,
        "meta_inclination": 50.0124,
        "meta_ra_of_asc_node": 95.9368,
        "meta_arg_of_pericenter": 314.3427,
        "meta_mean_anomaly": 45.6925,
        "meta_ephemeris_type": 0,
        "meta_classification_type": "U",
        "meta_norad_cat_id": 66921,
        "meta_element_set_no": 999,
        "meta_rev_at_epoch": 164,
        "meta_bstar": -1.7804653e-05,
        "meta_mean_motion_dot": -1.8e-06,
        "meta_mean_motion_ddot": 0,
        "tle_line1": "1 66921U 25285G   25351.96199694 -.00000180  00000+0 -17805-4 0  9990",
        "tle_line2": "2 66921  50.0124  95.9368 0006728 314.3427  45.6925 14.03630170  1642"
      },
      "geometry": {
        "type": "Point",
        "coordinates": [
          127.998070567381,
          34.92125713705713
        ]
      }
    },
    {
      "type": "Feature",
      "properties": {
        "norad_id": 66922,
        "name": "HULIANWANG DIGUI-112",
        "group": "last-30-days",
        "lat": 37.895120389353664,
        "lon": 132.9038283626988,
        "alt_km": 875.8362794069053,
        "timestamp": "2025-12-18T21:31:49.700970+00:00",
        "meta_object_name": "HULIANWANG DIGUI-112",
        "meta_object_id": "2025-285H",
        "meta_epoch": "2025-12-18T07:36:30.083904",
        "meta_mean_motion": 14.03660786,
        "meta_eccentricity": 0.00064812,
        "meta_inclination": 50.009,
        "meta_ra_of_asc_node": 94.4749,
        "meta_arg_of_pericenter": 322.5841,
        "meta_mean_anomaly": 37.4612,
        "meta_ephemeris_type": 0,
        "meta_classification_type": "U",
        "meta_norad_cat_id": 66922,
        "meta_element_set_no": 999,
        "meta_rev_at_epoch": 169,
        "meta_bstar": -1.789144e-06,
        "meta_mean_motion_dot": -1.54e-06,
        "meta_mean_motion_ddot": 0,
        "tle_line1": "1 66922U 25285H   25352.31701486 -.00000154  00000+0 -17891-5 0  9996",
        "tle_line2": "2 66922  50.0090  94.4749 0006481 322.5841  37.4612 14.03660786  1692"
      },
      "geometry": {
        "type": "Point",
        "coordinates": [
          132.9038283626988,
          37.895120389353664
        ]
      }
    },
    {
      "type": "Feature",
      "properties": {
        "norad_id": 66923,
        "name": "HULIANWANG DIGUI-113",
        "group": "last-30-days",
        "lat": 41.15551328132817,
        "lon": 139.29404774228706,
        "alt_km": 875.0332511554407,
        "timestamp": "2025-12-18T21:31:49.700981+00:00",
        "meta_object_name": "HULIANWANG DIGUI-113",
        "meta_object_id": "2025-285J",
        "meta_epoch": "2025-12-18T07:35:01.191264",
        "meta_mean_motion": 14.040024,
        "meta_eccentricity": 0.00052315,
        "meta_inclination": 50.01,
        "meta_ra_of_asc_node": 94.4708,
        "meta_arg_of_pericenter": 315.5251,
        "meta_mean_anomaly": 44.5233,
        "meta_ephemeris_type": 0,
        "meta_classification_type": "U",
        "meta_norad_cat_id": 66923,
        "meta_element_set_no": 999,
        "meta_rev_at_epoch": 169,
        "meta_bstar": 0.00018208635,
        "meta_mean_motion_dot": 1.38e-06,
        "meta_mean_motion_ddot": 0,
        "tle_line1": "1 66923U 25285J   25352.31598601  .00000138  00000+0  18209-3 0  9992",
        "tle_line2": "2 66923  50.0100  94.4708 0005231 315.5251  44.5233 14.04002400  1691"
      },
      "geometry": {
        "type": "Point",
        "coordinates": [
          139.29404774228706,
          41.15551328132817
        ]
      }
    },
    {
      "type": "Feature",
      "properties": {
        "norad_id": 66924,
        "name": "CZ-8A R/B",
        "group": "last-30-days",
        "lat": 49.61106184065106,
        "lon": -170.70288005567545,
        "alt_km": 710.6357744629731,
        "timestamp": "2025-12-18T21:31:49.700991+00:00",
        "meta_object_name": "CZ-8A R/B",
        "meta_object_id": "2025-285K",
        "meta_epoch": "2025-12-18T05:59:46.227840",
        "meta_mean_motion": 14.30503972,
        "meta_eccentricity": 0.01192776,
        "meta_inclination": 50.0073,
        "meta_ra_of_asc_node": 92.6994,
        "meta_arg_of_pericenter": 126.1691,
        "meta_mean_anomaly": 235.0329,
        "meta_ephemeris_type": 0,
        "meta_classification_type": "U",
        "meta_norad_cat_id": 66924,
        "meta_element_set_no": 999,
        "meta_rev_at_epoch": 171,
        "meta_bstar": 5.3862849e-05,
        "meta_mean_motion_dot": -1.4e-07,
        "meta_mean_motion_ddot": 0,
        "tle_line1": "1 66924U 25285K   25352.24984060 -.00000014  00000+0  53863-4 0  9993",
        "tle_line2": "2 66924  50.0073  92.6994 0119277 126.1691 235.0329 14.30503972  1713"
      },
      "geometry": {
        "type": "Point",
        "coordinates": [
          -170.70288005567545,
          49.61106184065106
        ]
      }
    },
    {
      "type": "Feature",
      "properties": {
        "norad_id": 66925,
        "name": "STARLINK-35945",
        "group": "last-30-days",
        "lat": 53.13072880033986,
        "lon": 110.66570804719353,
        "alt_km": 317.68144263426984,
        "timestamp": "2025-12-18T21:31:49.701001+00:00",
        "meta_object_name": "STARLINK-35945",
        "meta_object_id": "2025-286A",
        "meta_epoch": "2025-12-18T06:00:02.999808",
        "meta_mean_motion": 15.83618123,
        "meta_eccentricity": 6.791e-05,
        "meta_inclination": 53.1566,
        "meta_ra_of_asc_node": 22.7557,
        "meta_arg_of_pericenter": 93.4623,
        "meta_mean_anomaly": 268.3035,
        "meta_ephemeris_type": 0,
        "meta_classification_type": "U",
        "meta_norad_cat_id": 66925,
        "meta_element_set_no": 999,
        "meta_rev_at_epoch": 287,
        "meta_bstar": -0.0066315268,
        "meta_mean_motion_dot": -0.01309892,
        "meta_mean_motion_ddot": 0,
        "tle_line1": "1 66925U 25286A   25352.25003472 -.01309892  00000+0 -66315-2 0  9997",
        "tle_line2": "2 66925  53.1566  22.7557 0000679  93.4623 268.3035 15.83618123  2875"
      },
      "geometry": {
        "type": "Point",
        "coordinates": [
          110.66570804719353,
          53.13072880033986
        ]
      }
    },
    {
      "type": "Feature",
      "properties": {
        "norad_id": 66926,
        "name": "STARLINK-35942",
        "group": "last-30-days",
        "lat": 52.80992952841073,
        "lon": 118.29570897934428,
        "alt_km": 317.78003748699575,
        "timestamp": "2025-12-18T21:31:49.701011+00:00",
        "meta_object_name": "STARLINK-35942",
        "meta_object_id": "2025-286B",
        "meta_epoch": "2025-12-18T06:00:02.999808",
        "meta_mean_motion": 15.83623073,
        "meta_eccentricity": 6.517e-05,
        "meta_inclination": 53.1565,
        "meta_ra_of_asc_node": 22.7459,
        "meta_arg_of_pericenter": 86.6508,
        "meta_mean_anomaly": 279.7318,
        "meta_ephemeris_type": 0,
        "meta_classification_type": "U",
        "meta_norad_cat_id": 66926,
        "meta_element_set_no": 999,
        "meta_rev_at_epoch": 287,
        "meta_bstar": -0.0067176274,
        "meta_mean_motion_dot": -0.01325059,
        "meta_mean_motion_ddot": 0,
        "tle_line1": "1 66926U 25286B   25352.25003472 -.01325059  00000+0 -67176-2 0  9997",
        "tle_line2": "2 66926  53.1565  22.7459 0000651  86.6508 279.7318 15.83623073  2872"
      },
      "geometry": {
        "type": "Point",
        "coordinates": [
          118.29570897934428,
          52.80992952841073
        ]
      }
    }
  ]
}